CALSPHERE 1             
1 00900U 64063C   20154.88869937  .00000210  00000-0  21505-3 0  9997
2 00900  90.1551  28.1613 0029435  98.1044  20.3810 13.73377825768452
CALSPHERE 2             
1 00902U 64063E   20154.63884729  .00000005  00000-0 -57987-5 0  9996
2 00902  90.1658  30.7955 0019333 144.5850 248.4640 13.52683600558085
LCS 1                   
1 01361U 65034C   20154.80196197  .00000011  00000-0  38508-3 0  9991
2 01361  32.1460  13.3310 0004582  75.8745 284.2262  9.89297002991477
TEMPSAT 1               
1 01512U 65065E   20154.72357955  .00000011  00000-0  54963-5 0  9990
2 01512  89.8768 226.2913 0068418 322.9180 159.2844 13.33427185666125
CALSPHERE 4(A)          
1 01520U 65065H   20154.89035256  .00000056  00000-0  91390-4 0  9997
2 01520  90.0324 129.0754 0069117 201.4469 216.2947 13.35814062668257
OPS 5712 (P/L 160)      
1 02826U 67053A   20154.85342008  .00000393  00000-0  11943-3 0  9997
2 02826  69.9281 233.1306 0007474 305.0973  54.9459 14.49080933744824
OPS 5712 (P/L 153)      
1 02874U 67053H   20154.73239768 -.00000005  00000-0  34830-4 0  9997
2 02874  69.9718 160.1915 0007901 198.9410 161.1403 13.96349162699357
SURCAL 150B             
1 02909U 67053J   20154.84158186  .00000532  00000-0  12021-3 0  9993
2 02909  69.9480 257.3128 0003997 346.3277  13.7754 14.61748988754746
RIGIDSPHERE 2 (LCS 4)   
1 05398U 71067E   20154.87055927  .00000140  00000-0  43282-4 0  9999
2 05398  87.6277 228.1986 0061635 322.6566  37.0353 14.33885997557556
